NORAD_CAT_ID,OBJECT_NAME,OBJECT_TYPE,EPOCH,MEAN_MOTION,ECCENTRICITY,INCLINATION,RA_OF_ASC_NODE,ARG_OF_PERICENTER,MEAN_ANOMALY,BSTAR,MEAN_MOTION_DOT,MEAN_MOTION_DDOT,TLE_LINE0,TLE_LINE1,TLE_LINE2,SEMIMAJOR_AXIS,PERIOD,APOGEE,PERIGEE,DECAYED
52629.0,STARLINK-4022,PAYLOAD,2023-04-22 13:20:02,15.08844255,0.0001091,53.2168,312.3438,54.8359,305.2735,0.00055411,8.543e-05,0.0,0 STARLINK-4022,1 52629U 22052AH  23112.55558933  .00008543  00000-0  55411-3 0  9996,2 52629  53.2168 312.3438 0001091  54.8359 305.2735 15.08844255 52532,6917.867,95.437,540.487,538.978,0.0
52629.0,STARLINK-4022,PAYLOAD,2023-04-22 19:41:35,15.0885428,9.79e-05,53.2161,311.1535,77.1661,282.944,0.0005373,8.277e-05,0.0,0 STARLINK-4022,1 52629U 22052AH  23112.82054651  .00008277  00000-0  53730-3 0  9990,2 52629  53.2161 311.1535 0000979  77.1661 282.9440 15.08854280 52193,6917.837,95.437,540.379,539.024,0.0
52629.0,STARLINK-4022,PAYLOAD,2023-04-23 13:10:50,15.08840901,0.0001067,53.2149,307.8812,66.6538,293.4566,0.00029208,4.364e-05,0.0,0 STARLINK-4022,1 52629U 22052AH  23113.54919038  .00004364  00000-0  29208-3 0  9995,2 52629  53.2149 307.8812 0001067  66.6538 293.4566 15.08840901 52308,6917.878,95.437,540.481,539.004,0.0
52629.0,STARLINK-4022,PAYLOAD,2023-04-23 14:46:13,15.08838372,0.0001224,53.2178,307.5854,86.8488,273.2644,3.7853e-05,3.15e-06,0.0,0 STARLINK-4022,1 52629U 22052AH  23113.61542994  .00000315  00000-0  37853-4 0  9994,2 52629  53.2178 307.5854 0001224  86.8488 273.2644 15.08838372 52690,6917.885,95.438,540.597,538.904,0.0
52629.0,STARLINK-4022,PAYLOAD,2023-04-23 22:43:08,15.08847769,0.0001121,53.2158,306.0973,72.6466,287.4649,0.00021968,3.211e-05,0.0,0 STARLINK-4022,1 52629U 22052AH  23113.94662862  .00003211  00000-0  21968-3 0  9994,2 52629  53.2158 306.0973 0001121  72.6466 287.4649 15.08847769 52365,6917.857,95.437,540.497,538.946,0.0
52629.0,STARLINK-4022,PAYLOAD,2023-04-25 12:52:24,15.08804339,0.0001902,53.2175,298.9622,99.8685,260.2522,-0.0012321,-0.00019825,0.0,0 STARLINK-4022,1 52629U 22052AH  23115.53639212 -.00019825  00000-0 -12321-2 0  9996,2 52629  53.2175 298.9622 0001902  99.8685 260.2522 15.08804339 52607,6917.989,95.44,541.17,538.539,0.0
52629.0,STARLINK-4022,PAYLOAD,2023-04-26 04:46:16,15.08828792,0.0001427,53.2172,295.9861,99.6202,260.4952,0.00097108,0.00015196,0.0,0 STARLINK-4022,1 52629U 22052AH  23116.19879765  .00015196  00000-0  97108-3 0  9990,2 52629  53.2172 295.9861 0001427  99.6202 260.4952 15.08828792 52700,6917.915,95.438,540.767,538.792,0.0
52629.0,STARLINK-4022,PAYLOAD,2023-04-26 19:04:44,15.08849979,0.0001378,53.2161,293.3117,101.7277,258.387,0.00069993,0.00010872,0.0,0 STARLINK-4022,1 52629U 22052AH  23116.79495478  .00010872  00000-0  69993-3 0  9998,2 52629  53.2161 293.3117 0001378 101.7277 258.3870 15.08849979 52790,6917.85,95.437,540.668,538.762,0.0
52629.0,STARLINK-4022,PAYLOAD,2023-04-27 10:58:35,15.08847504,0.0001356,53.2159,290.3395,83.6959,276.4188,0.00013629,1.882e-05,0.0,0 STARLINK-4022,1 52629U 22052AH  23117.45735346  .00001882  00000-0  13629-3 0  9999,2 52629  53.2159 290.3395 0001356  83.6959 276.4188 15.08847504 53272,6917.857,95.437,540.661,538.784,0.0
52629.0,STARLINK-4022,PAYLOAD,2023-04-28 10:49:22,15.08838631,0.0001346,53.2164,285.8798,81.3003,278.8142,8.3967e-05,1.049e-05,0.0,0 STARLINK-4022,1 52629U 22052AH  23118.45095715  .00001049  00000-0  83967-4 0  9997,2 52629  53.2164 285.8798 0001346  81.3003 278.8142 15.08838631 53422,6917.885,95.438,540.681,538.818,0.0
52629.0,STARLINK-4022,PAYLOAD,2023-04-29 10:40:09,15.08839753,0.0001465,53.2169,281.4185,75.1104,285.005,0.00011545,1.55e-05,0.0,0 STARLINK-4022,1 52629U 22052AH  23119.44455969  .00001550  00000-0  11545-3 0  9997,2 52629  53.2169 281.4185 0001465  75.1104 285.0050 15.08839753 53192,6917.881,95.438,540.76,538.733,0.0
52629.0,STARLINK-4022,PAYLOAD,2023-04-29 17:01:42,15.08841765,0.0001688,53.2164,280.2294,79.0119,281.1063,0.00017175,2.447e-05,0.0,0 STARLINK-4022,1 52629U 22052AH  23119.70951941  .00002447  00000-0  17175-3 0  9998,2 52629  53.2164 280.2294 0001688  79.0119 281.1063 15.08841765 53615,6917.875,95.437,540.908,538.572,0.0
52629.0,STARLINK-4022,PAYLOAD,2023-04-30 13:41:43,15.08840503,0.0001307,53.2158,276.362,71.908,288.2054,0.00013764,1.903e-05,0.0,0 STARLINK-4022,1 52629U 22052AH  23120.57063951  .00001903  00000-0  13764-3 0  9996,2 52629  53.2158 276.3620 0001307  71.9080 288.2054 15.08840503 53362,6917.879,95.438,540.648,538.84,0.0
52629.0,STARLINK-4022,PAYLOAD,2023-04-30 21:38:38,15.08849805,0.0001314,53.2163,274.876,74.6588,285.455,0.00021296,3.104e-05,0.0,0 STARLINK-4022,1 52629U 22052AH  23120.90183417  .00003104  00000-0  21296-3 0  9997,2 52629  53.2163 274.8760 0001314  74.6588 285.4550 15.08849805 53798,6917.85,95.437,540.624,538.806,0.0
52629.0,STARLINK-4022,PAYLOAD,2023-05-01 10:21:44,15.08838338,0.0001502,53.216,272.4978,83.778,276.3383,6.1519e-05,6.91e-06,0.0,0 STARLINK-4022,1 52629U 22052AH  23121.43176342  .00000691  00000-0  61519-4 0  9996,2 52629  53.2160 272.4978 0001502  83.7780 276.3383 15.08838338 53875,6917.885,95.438,540.79,538.711,0.0
52629.0,STARLINK-4022,PAYLOAD,2023-05-01 13:32:30,15.08836921,0.0001213,53.2162,271.9025,78.7724,281.3405,3.7766e-05,3.13e-06,0.0,0 STARLINK-4022,1 52629U 22052AH  23121.56424273  .00000313  00000-0  37766-4 0  9997,2 52629  53.2162 271.9025 0001213  78.7724 281.3405 15.08836921 53513,6917.89,95.438,540.594,538.916,0.0
52629.0,STARLINK-4022,PAYLOAD,2023-05-01 19:54:02,15.08844328,0.0001289,53.2182,270.7124,102.8731,257.2405,7.8949e-05,9.69e-06,0.0,0 STARLINK-4022,1 52629U 22052AH  23121.82919648  .00000969  00000-0  78949-4 0  9996,2 52629  53.2182 270.7124 0001289 102.8731 257.2405 15.08844328 53558,6917.867,95.437,540.624,538.84,0.0
52629.0,STARLINK-4022,PAYLOAD,2023-05-02 13:23:16,15.08850312,0.000122,53.2163,267.4406,90.3123,269.8009,0.00023464,3.449e-05,0.0,0 STARLINK-4022,1 52629U 22052AH  23122.55783470  .00003449  00000-0  23464-3 0  9996,2 52629  53.2163 267.4406 0001220  90.3123 269.8009 15.08850312 53665,6917.849,95.437,540.558,538.87,0.0
52629.0,STARLINK-4022,PAYLOAD,2023-05-02 16:34:02,15.08859466,0.0001205,53.2175,266.8482,99.3283,260.7846,0.00038936,5.917e-05,0.0,0 STARLINK-4022,1 52629U 22052AH  23122.69031077  .00005917  00000-0  38936-3 0  9992,2 52629  53.2175 266.8482 0001205  99.3283 260.7846 15.08859466 54067,6917.821,95.436,540.519,538.852,0.0
52629.0,STARLINK-4022,PAYLOAD,2023-05-03 02:06:22,15.08828138,0.0002604,53.2164,265.0586,94.6575,265.4715,-0.00021351,-3.684e-05,0.0,0 STARLINK-4022,1 52629U 22052AH  23123.08776296 -.00003684  00000-0 -21351-3 0  9999,2 52629  53.2164 265.0586 0002604  94.6575 265.4715 15.08828138 54123,6917.917,95.438,541.583,537.98,0.0
52629.0,STARLINK-4022,PAYLOAD,2023-05-03 13:14:04,15.08840244,0.0001495,53.2184,262.9824,118.1611,241.9532,-2.9631e-05,-7.6e-06,0.0,0 STARLINK-4022,1 52629U 22052AH  23123.55143547 -.00000760  00000-0 -29631-4 0  9990,2 52629  53.2184 262.9824 0001495 118.1611 241.9532 15.08840244 53819,6917.88,95.438,540.779,538.71,0.0
52629.0,STARLINK-4022,PAYLOAD,2023-05-03 18:00:13,15.08842659,0.0001019,53.2171,262.0879,104.6858,255.4247,0.00038601,5.861e-05,0.0,0 STARLINK-4022,1 52629U 22052AH  23123.75015508  .00005861  00000-0  38601-3 0  9998,2 52629  53.2171 262.0879 0001019 104.6858 255.4247 15.08842659 54222,6917.872,95.437,540.442,539.032,0.0
52629.0,STARLINK-4022,PAYLOAD,2023-05-04 08:18:41,15.08841861,9.93e-05,53.217,259.4133,100.5225,259.5879,0.00058271,8.999e-05,0.0,0 STARLINK-4022,1 52629U 22052AH  23124.34631851  .00008999  00000-0  58271-3 0  9999,2 52629  53.2170 259.4133 0000993 100.5225 259.5879 15.08841861 54317,6917.875,95.437,540.427,539.053,0.0
52629.0,STARLINK-4022,PAYLOAD,2023-05-04 13:04:51,15.08841807,0.0001138,53.2176,258.5212,102.2669,257.8451,0.00042109,6.42e-05,0.0,0 STARLINK-4022,1 52629U 22052AH  23124.54503887  .00006420  00000-0  42109-3 0  9998,2 52629  53.2176 258.5212 0001138 102.2669 257.8451 15.08841807 53961,6917.875,95.437,540.527,538.953,0.0
52629.0,STARLINK-4022,PAYLOAD,2023-05-04 17:51:00,15.0884656,0.0001161,53.2176,257.6292,102.161,257.9512,0.00048564,7.451e-05,0.0,0 STARLINK-4022,1 52629U 22052AH  23124.74375773  .00007451  00000-0  48564-3 0  9997,2 52629  53.2176 257.6292 0001161 102.1610 257.9512 15.08846560 53993,6917.86,95.437,540.529,538.922,0.0
52629.0,STARLINK-4022,PAYLOAD,2023-05-05 01:47:56,15.0883794,0.0001183,53.2172,256.1407,93.6822,266.4305,0.0001579,2.226e-05,0.0,0 STARLINK-4022,1 52629U 22052AH  23125.07496087  .00002226  00000-0  15790-3 0  9996,2 52629  53.2172 256.1407 0001183  93.6822 266.4305 15.08837940 54420,6917.887,95.438,540.57,538.933,0.0
52629.0,STARLINK-4022,PAYLOAD,2023-05-05 16:06:25,15.0883719,0.0001073,53.2161,253.4653,85.3525,274.7589,0.00012173,1.65e-05,0.0,0 STARLINK-4022,1 52629U 22052AH  23125.67112383  .00001650  00000-0  12173-3 0  9998,2 52629  53.2161 253.4653 0001073  85.3525 274.7589 15.08837190 54138,6917.889,95.438,540.496,539.012,0.0
52629.0,STARLINK-4022,PAYLOAD,2023-05-06 01:38:44,15.08838397,0.0001087,53.2162,251.681,76.9376,283.1737,0.00014835,2.074e-05,0.0,0 STARLINK-4022,1 52629U 22052AH  23126.06856529  .00002074  00000-0  14835-3 0  9997,2 52629  53.2162 251.6810 0001087  76.9376 283.1737 15.08838397 54576,6917.885,95.438,540.502,538.998,0.0
52629.0,STARLINK-4022,PAYLOAD,2023-05-06 14:21:48,15.08851359,0.0001111,53.2162,249.3019,74.5256,285.5859,0.00040057,6.095e-05,0.0,0 STARLINK-4022,1 52629U 22052AH  23126.59848321  .00006095  00000-0  40057-3 0  9998,2 52629  53.2162 249.3019 0001111  74.5256 285.5859 15.08851359 54271,6917.846,95.437,540.479,538.942,0.0
52629.0,STARLINK-4022,PAYLOAD,2023-05-07 01:29:30,15.08849137,0.0001113,53.2155,247.2225,71.6476,288.4638,0.0004279,6.53e-05,0.0,0 STARLINK-4022,1 52629U 22052AH  23127.06216400  .00006530  00000-0  42790-3 0  9998,2 52629  53.2155 247.2225 0001113  71.6476 288.4638 15.08849137 54721,6917.852,95.437,540.487,538.948,0.0
